[
    {
        "Altitude(m)": 568688.9441892295,
        "Argument of Periapsis(deg)": 0.019868973332140504,
        "Eccentricity": 0.0,
        "Inclination(deg)": 53.0,
        "Latitude(deg)": -45.25749711055494,
        "Longitude(deg)": 28.48902176482408,
        "Mean Anomaly(deg)": -62.452421397267194,
        "RAAN(deg)": 179.97043010558406,
        "Satellite Name": "Starlink Shell 1 808",
        "Satellite Number": 808,
        "Semi-Major Axis(m)": 6931778.249405717,
        "Time(s)": 570
    },
    {
        "Altitude(m)": 568553.6172308127,
        "Argument of Periapsis(deg)": 0.02021755181165174,
        "Eccentricity": 0.0,
        "Inclination(deg)": 53.0,
        "Latitude(deg)": -44.92788186997407,
        "Longitude(deg)": 29.198549663971317,
        "Mean Anomaly(deg)": -61.825590193710525,
        "RAAN(deg)": 179.96991133550657,
        "Satellite Name": "Starlink Shell 1 808",
        "Satellite Number": 808,
        "Semi-Major Axis(m)": 6931778.249405717,
        "Time(s)": 580
    },
    {
        "Altitude(m)": 568416.1141639531,
        "Argument of Periapsis(deg)": 0.020566130291162974,
        "Eccentricity": 0.0,
        "Inclination(deg)": 53.0,
        "Latitude(deg)": -44.59336258867583,
        "Longitude(deg)": 29.899496715764275,
        "Mean Anomaly(deg)": -61.19875899015378,
        "RAAN(deg)": 179.9693925654291,
        "Satellite Name": "Starlink Shell 1 808",
        "Satellite Number": 808,
        "Semi-Major Axis(m)": 6931778.249405717,
        "Time(s)": 590
    },
    {
        "Altitude(m)": 568276.4891270667,
        "Argument of Periapsis(deg)": 0.020914708770674213,
        "Eccentricity": 0.0,
        "Inclination(deg)": 53.0,
        "Latitude(deg)": -44.25404974139618,
        "Longitude(deg)": 30.59193762132682,
        "Mean Anomaly(deg)": -60.571927786597136,
        "RAAN(deg)": 179.96887379535164,
        "Satellite Name": "Starlink Shell 1 808",
        "Satellite Number": 808,
        "Semi-Major Axis(m)": 6931778.249405717,
        "Time(s)": 600
    },
    {
        "Altitude(m)": 568134.7970556768,
        "Argument of Periapsis(deg)": 0.021263287250185448,
        "Eccentricity": 0.0,
        "Inclination(deg)": 53.0,
        "Latitude(deg)": -43.91005218255295,
        "Longitude(deg)": 31.27595255031805,
        "Mean Anomaly(deg)": -59.94509658304044,
        "RAAN(deg)": 179.96835502527415,
        "Satellite Name": "Starlink Shell 1 808",
        "Satellite Number": 808,
        "Semi-Major Axis(m)": 6931778.249405717,
        "Time(s)": 610
    },
    {
        "Altitude(m)": 567991.0936582595,
        "Argument of Periapsis(deg)": 0.021611865729696686,
        "Eccentricity": 0.0,
        "Inclination(deg)": 53.0,
        "Latitude(deg)": -43.56147709760524,
        "Longitude(deg)": 31.95162719676256,
        "Mean Anomaly(deg)": -59.31826537948359,
        "RAAN(deg)": 179.9678362551967,
        "Satellite Name": "Starlink Shell 1 808",
        "Satellite Number": 808,
        "Semi-Major Axis(m)": 6931778.249405717,
        "Time(s)": 620
    },
    {
        "Altitude(m)": 567845.435391705,
        "Argument of Periapsis(deg)": 0.02196044420920792,
        "Eccentricity": 0.0,
        "Inclination(deg)": 53.0,
        "Latitude(deg)": -43.20842996161505,
        "Longitude(deg)": 32.61905117116541,
        "Mean Anomaly(deg)": -58.69143417592694,
        "RAAN(deg)": 179.96731748511922,
        "Satellite Name": "Starlink Shell 1 808",
        "Satellite Number": 808,
        "Semi-Major Axis(m)": 6931778.249405717,
        "Time(s)": 630
    },
    {
        "Altitude(m)": 567697.879436465,
        "Argument of Periapsis(deg)": 0.02230902268871916,
        "Eccentricity": 0.0,
        "Inclination(deg)": 53.0,
        "Latitude(deg)": -42.851014504585756,
        "Longitude(deg)": 33.278318931818674,
        "Mean Anomaly(deg)": -58.064602972370274,
        "RAAN(deg)": 179.96679871504173,
        "Satellite Name": "Starlink Shell 1 808",
        "Satellite Number": 808,
        "Semi-Major Axis(m)": 6931778.249405717,
        "Time(s)": 640
    },
    {
        "Altitude(m)": 567548.4836713546,
        "Argument of Periapsis(deg)": 0.022657601168230398,
        "Eccentricity": 0.0,
        "Inclination(deg)": 53.0,
        "Latitude(deg)": -42.489332683175896,
        "Longitude(deg)": 33.92952821271007,
        "Mean Anomaly(deg)": -57.437771768813526,
        "RAAN(deg)": 179.96627994496427,
        "Satellite Name": "Starlink Shell 1 808",
        "Satellite Number": 808,
        "Semi-Major Axis(m)": 6931778.249405717,
        "Time(s)": 650
    },
    {
        "Altitude(m)": 567397.3066480177,
        "Argument of Periapsis(deg)": 0.023006179647741636,
        "Eccentricity": 0.0,
        "Inclination(deg)": 53.0,
        "Latitude(deg)": -42.12348465837184,
        "Longitude(deg)": 34.57278015063879,
        "Mean Anomaly(deg)": -56.810940565256765,
        "RAAN(deg)": 179.9657611748868,
        "Satellite Name": "Starlink Shell 1 808",
        "Satellite Number": 808,
        "Semi-Major Axis(m)": 6931778.249405717,
        "Time(s)": 660
    },
    {
        "Altitude(m)": 567244.4075650858,
        "Argument of Periapsis(deg)": 0.023354758127252868,
        "Eccentricity": 0.0,
        "Inclination(deg)": 53.0,
        "Latitude(deg)": -41.753568778724194,
        "Longitude(deg)": 35.20817943061959,
        "Mean Anomaly(deg)": -56.18410936170008,
        "RAAN(deg)": 179.96524240480932,
        "Satellite Name": "Starlink Shell 1 808",
        "Satellite Number": 808,
        "Semi-Major Axis(m)": 6931778.249405717,
        "Time(s)": 670
    },
    {
        "Altitude(m)": 567089.8462420495,
        "Argument of Periapsis(deg)": 0.023703336606764106,
        "Eccentricity": 0.0,
        "Inclination(deg)": 53.0,
        "Latitude(deg)": -41.37968156876146,
        "Longitude(deg)": 35.83583293663864,
        "Mean Anomaly(deg)": -55.55727815814335,
        "RAAN(deg)": 179.96472363473185,
        "Satellite Name": "Starlink Shell 1 808",
        "Satellite Number": 808,
        "Semi-Major Axis(m)": 6931778.249405717,
        "Time(s)": 680
    },
    {
        "Altitude(m)": 566933.6830928167,
        "Argument of Periapsis(deg)": 0.024051915086275345,
        "Eccentricity": 0.0,
        "Inclination(deg)": 53.0,
        "Latitude(deg)": -41.00191772219852,
        "Longitude(deg)": 36.45584993334117,
        "Mean Anomaly(deg)": -54.9304469545867,
        "RAAN(deg)": 179.9642048646544,
        "Satellite Name": "Starlink Shell 1 808",
        "Satellite Number": 808,
        "Semi-Major Axis(m)": 6931778.249405717,
        "Time(s)": 690
    },
    {
        "Altitude(m)": 566775.9790990032,
        "Argument of Periapsis(deg)": 0.024400493565786583,
        "Eccentricity": 0.0,
        "Inclination(deg)": 53.0,
        "Latitude(deg)": -40.62037009957732,
        "Longitude(deg)": 37.068342265529,
        "Mean Anomaly(deg)": -54.30361575102993,
        "RAAN(deg)": 179.9636860945769,
        "Satellite Name": "Starlink Shell 1 808",
        "Satellite Number": 808,
        "Semi-Major Axis(m)": 6931778.249405717,
        "Time(s)": 700
    },
    {
        "Altitude(m)": 566616.7957829519,
        "Argument of Periapsis(deg)": 0.024749072045297815,
        "Eccentricity": 0.0,
        "Inclination(deg)": 53.0,
        "Latitude(deg)": -40.235129729992416,
        "Longitude(deg)": 37.67342306226581,
        "Mean Anomaly(deg)": -53.676784547473254,
        "RAAN(deg)": 179.96316732449944,
        "Satellite Name": "Starlink Shell 1 808",
        "Satellite Number": 808,
        "Semi-Major Axis(m)": 6931778.249405717,
        "Time(s)": 710
    },
    {
        "Altitude(m)": 566456.1951804882,
        "Argument of Periapsis(deg)": 0.025097650524809053,
        "Eccentricity": 0.0,
        "Inclination(deg)": 53.0,
        "Latitude(deg)": -39.8462858165583,
        "Longitude(deg)": 38.271206970947226,
        "Mean Anomaly(deg)": -53.0499533439164,
        "RAAN(deg)": 179.96264855442195,
        "Satellite Name": "Starlink Shell 1 808",
        "Satellite Number": 808,
        "Semi-Major Axis(m)": 6931778.249405717,
        "Time(s)": 720
    },
    {
        "Altitude(m)": 566294.2398134443,
        "Argument of Periapsis(deg)": 0.02544622900432029,
        "Eccentricity": 0.0,
        "Inclination(deg)": 53.0,
        "Latitude(deg)": -39.4539257453022,
        "Longitude(deg)": 38.861810408013454,
        "Mean Anomaly(deg)": -52.42312214035974,
        "RAAN(deg)": 179.96212978434448,
        "Satellite Name": "Starlink Shell 1 808",
        "Satellite Number": 808,
        "Semi-Major Axis(m)": 6931778.249405717,
        "Time(s)": 730
    },
    {
        "Altitude(m)": 566130.9926619527,
        "Argument of Periapsis(deg)": 0.02579480748383153,
        "Eccentricity": 0.0,
        "Inclination(deg)": 53.0,
        "Latitude(deg)": -39.05813509717575,
        "Longitude(deg)": 39.445350312948634,
        "Mean Anomaly(deg)": -51.79629093680309,
        "RAAN(deg)": 179.96161101426702,
        "Satellite Name": "Starlink Shell 1 808",
        "Satellite Number": 808,
        "Semi-Major Axis(m)": 6931778.249405717,
        "Time(s)": 740
    },
    {
        "Altitude(m)": 565966.5171364812,
        "Argument of Periapsis(deg)": 0.026143385963342765,
        "Eccentricity": 0.0,
        "Inclination(deg)": 53.0,
        "Latitude(deg)": -38.65899766289319,
        "Longitude(deg)": 40.02194443078082,
        "Mean Anomaly(deg)": -51.16945973324635,
        "RAAN(deg)": 179.96109224418956,
        "Satellite Name": "Starlink Shell 1 808",
        "Satellite Number": 808,
        "Semi-Major Axis(m)": 6931778.249405717,
        "Time(s)": 750
    }
]